[{"OBJECT_NAME":"IRIDIUM 138","OBJECT_ID":"2017-083B","EPOCH":"2026-03-09T21:30:43.184160","MEAN_MOTION":14.34218949,"ECCENTRICITY":0.00023523,"INCLINATION":86.4035,"RA_OF_ASC_NODE":3.1874,"ARG_OF_PERICENTER":77.6293,"MEAN_ANOMALY":282.5166,"EPHEMERIS_TYPE":0,"CLASSIFICATION_TYPE":"U","NORAD_CAT_ID":43071,"ELEMENT_SET_NO":999,"REV_AT_EPOCH":42990,"BSTAR":0.00011242147,"MEAN_MOTION_DOT":3.35e-6,"MEAN_MOTION_DDOT":0},{"OBJECT_NAME":"FENGYUN 1C DEB","OBJECT_ID":"1999-025EYJ","EPOCH":"2026-03-09T03:57:13.129056","MEAN_MOTION":14.25220751,"ECCENTRICITY":0.00527425,"INCLINATION":98.7234,"RA_OF_ASC_NODE":139.5531,"ARG_OF_PERICENTER":331.43,"MEAN_ANOMALY":28.3991,"EPHEMERIS_TYPE":0,"CLASSIFICATION_TYPE":"U","NORAD_CAT_ID":41831,"ELEMENT_SET_NO":999,"REV_AT_EPOCH":48490,"BSTAR":0.0014175081,"MEAN_MOTION_DOT":3.337e-5,"MEAN_MOTION_DDOT":0}]
